     2.100          NAVIGATION                              RINEX VERSION / TYPE
fic2rin                                 11/10/2009 01:11:35 PGM / RUN BY / DATE
                                                            END OF HEADER
 3 09 11  9  1 59 44.0  .471983570606D-03  .522959453519D-11  .000000000000D+00
     .500000000000D+01 -.152500000000D+02  .524914721948D-08  .582020783113D+00
    -.743195414543D-06  .126657577930D-01  .101532787085D-04  .515366865921D+04
     .935840000000D+05 -.266358256340D-06  .171583663464D+01  .104308128357D-06
     .926306115339D+00  .167906250000D+03  .963124967758D+00 -.847928176755D-08
     .188222125921D-09  .100000000000D+01  .155700000000D+04  .000000000000D+00
     .240000000000D+01  .000000000000D+00 -.465661287308D-08  .500000000000D+01
     .892560000000D+05  .400000000000D+01
27 09 11  9  1 59 44.0  .982643105090D-04  .318323145621D-11  .000000000000D+00
     .610000000000D+02 -.262500000000D+01  .434018078595D-08  .149667195739D+01
    -.849366188049D-06  .215312737273D-01  .425055623055D-05  .515371788216D+04
     .935840000000D+05  .931322574615D-07 -.317228633092D+00 -.474974513054D-06
     .976560151387D+00  .305062500000D+03 -.152316667508D+01 -.816212569958D-08
    -.228580949885D-10  .100000000000D+01  .155700000000D+04  .000000000000D+00
     .240000000000D+01  .000000000000D+00 -.419095158577D-08  .610000000000D+02
     .898860000000D+05  .400000000000D+01
21 09 11  9  1 59 44.0 -.202148221433D-04 -.238742359215D-11  .000000000000D+00
     .700000000000D+01  .234062500000D+02  .535343727787D-08 -.181471676711D+01
     .925734639168D-06  .156577607850D-01  .639446079731D-05  .515373572731D+04
     .935840000000D+05  .169500708580D-06  .289583314385D+01 -.121071934700D-06
     .933621026115D+00  .237562500000D+03 -.254776758742D+01 -.833891877801D-08
     .266439669710D-09  .100000000000D+01  .155700000000D+04  .000000000000D+00
     .240000000000D+01  .000000000000D+00 -.121071934700D-07  .700000000000D+01
     .919560000000D+05  .400000000000D+01
 4 09 11  9  1 59 44.0 -.350153073668D-03 -.181898940355D-10  .000000000000D+00
     .110000000000D+02  .204375000000D+02  .529022035891D-08 -.259015415537D+01
     .821426510811D-06  .900902878493D-02  .729784369469D-05  .515356456566D+04
     .935840000000D+05 -.372529029846D-08  .288377437449D+01 -.180676579475D-06
     .940079376411D+00  .229593750000D+03  .551962638362D+00 -.827998775187D-08
     .143934566881D-09  .100000000000D+01  .155700000000D+04  .000000000000D+00
     .240000000000D+01  .000000000000D+00 -.605359673500D-08  .110000000000D+02
     .924360000000D+05  .400000000000D+01
 3 09 11  9  3 59 44.0  .472021289170D-03  .522959453519D-11  .000000000000D+00
     .700000000000D+01 -.260000000000D+02  .521271713059D-08  .163210317121D+01
    -.144541263580D-05  .126659969101D-01  .102240592241D-04  .515367116928D+04
     .100784000000D+06 -.260770320892D-06  .171577555196D+01 -.130385160446D-06
     .926307313469D+00  .167968750000D+03  .963231550118D+00 -.841606484860D-08
     .165364030933D-09  .100000000000D+01  .155700000000D+04  .000000000000D+00
     .240000000000D+01  .000000000000D+00 -.465661287308D-08  .700000000000D+01
     .936060000000D+05  .400000000000D+01
 4 09 11  9  3 59 44.0 -.350283924490D-03 -.181898940355D-10  .000000000000D+00
     .120000000000D+02  .209375000000D+02  .522486049355D-08 -.154002057684D+01
     .925734639168D-06  .900965428445D-02  .637210905552D-05  .515356221199D+04
     .100784000000D+06  .968575477600D-07  .288371453090D+01 -.145286321640D-06
     .940080605262D+00  .238437500000D+03  .552082860970D+00 -.830856037060D-08
     .167864135072D-09  .100000000000D+01  .155700000000D+04  .000000000000D+00
     .240000000000D+01  .000000000000D+00 -.605359673500D-08  .120000000000D+02
     .936060000000D+05  .400000000000D+01
21 09 11  9  3 59 44.0 -.202320516109D-04 -.238742359215D-11  .000000000000D+00
     .800000000000D+01  .290937500000D+02  .541522556588D-08 -.764617764645D+00
     .171549618244D-05  .156575731235D-01  .647455453873D-05  .515373416710D+04
     .100784000000D+06  .279396772385D-06  .289577347435D+01  .210478901863D-06
     .933621456213D+00  .237250000000D+03 -.254771766827D+01 -.861214444467D-08
     .106790162525D-09  .100000000000D+01  .155700000000D+04  .000000000000D+00
     .240000000000D+01  .000000000000D+00 -.121071934700D-07  .800000000000D+01
     .936060000000D+05  .400000000000D+01
27 09 11  9  3 59 44.0  .982871279120D-04  .318323145621D-11  .000000000000D+00
     .620000000000D+02  .921875000000D+01  .435446709532D-08  .254672732393D+01
     .419095158577D-06  .215304950252D-01  .326335430145D-05  .515372197533D+04
     .100784000000D+06  .217929482460D-06 -.317285881465D+00 -.217929482460D-06
     .976560552227D+00  .316093750000D+03 -.152307132647D+01 -.795533137148D-08
    -.882179603464D-10  .100000000000D+01  .155700000000D+04  .000000000000D+00
     .240000000000D+01  .000000000000D+00 -.419095158577D-08  .620000000000D+02
     .936060000000D+05  .400000000000D+01
 1 09 11  9  4  0  0.0 -.635799951851D-04 -.204636307899D-11  .000000000000D+00
     .830000000000D+02 -.920937500000D+02  .568309386653D-08 -.186917625668D+01
    -.471435487270D-05  .382157531567D-02  .732019543648D-05  .515368724442D+04
     .100800000000D+06  .108033418655D-06  .779268350855D+00 -.115483999252D-06
     .962471785076D+00  .242093750000D+03  .974277838263D+00 -.803140596887D-08
    -.134648465792D-09  .100000000000D+01  .155700000000D+04  .000000000000D+00
     .240000000000D+01  .630000000000D+02 -.190921127796D-07  .830000000000D+02
     .936060000000D+05  .400000000000D+01
 2 09 11  9  4  0  0.0  .189613085240D-03  .420641299570D-11  .000000000000D+00
     .770000000000D+02  .231875000000D+02  .523950396066D-08  .188271539820D+01
     .111199915409D-05  .914969493169D-02  .694394111633D-05  .515372711563D+04
     .100800000000D+06  .167638063431D-07  .286556686975D+01  .115483999252D-06
     .940892031793D+00  .232562500000D+03  .291330624617D+01 -.833177562333D-08
    -.189293599124D-10  .100000000000D+01  .155700000000D+04  .000000000000D+00
     .240000000000D+01  .000000000000D+00 -.172294676304D-07  .770000000000D+02
     .936060000000D+05  .400000000000D+01
 5 09 11  9  4  0  0.0 -.480790622532D-04  .716227077646D-11  .000000000000D+00
     .130000000000D+02  .215000000000D+02  .466305137766D-08 -.300089560908D+01
     .118091702461D-05  .162242504302D-02  .892393290997D-05  .515359092712D+04
     .100800000000D+06  .186264514923D-08 -.235968109942D+01 -.465661287308D-07
     .961046288441D+00  .209875000000D+03  .236551632708D+00 -.802819154926D-08
    -.321799118511D-09  .100000000000D+01  .155700000000D+04  .000000000000D+00
     .240000000000D+01  .000000000000D+00 -.931322574615D-08  .130000000000D+02
     .936060000000D+05  .400000000000D+01
 6 09 11  9  4  0  0.0  .259994529188D-03  .238742359215D-11  .000000000000D+00
     .240000000000D+02 -.135312500000D+02  .499949396328D-08 -.234588000195D+01
    -.629574060440D-06  .576498976443D-02  .975653529167D-05  .515370162964D+04
     .100800000000D+06  .745058059692D-07  .178476453177D+01  .726431608200D-07
     .933744519807D+00  .174843750000D+03 -.121111667690D+01 -.816962601200D-08
     .230366738556D-09  .100000000000D+01  .155700000000D+04  .000000000000D+00
     .240000000000D+01  .000000000000D+00 -.512227416039D-08  .240000000000D+02
     .936060000000D+05  .400000000000D+01
 7 09 11  9  4  0  0.0  .806292518973D-05 -.682121026330D-12  .000000000000D+00
     .510000000000D+02 -.109687500000D+02  .456447584303D-08  .159619728940D+00
    -.745058059692D-06  .324415625073D-02  .358931720257D-05  .515364286995D+04
     .100800000000D+06  .353902578354D-07 -.260087806318D+00 -.614672899246D-07
     .969687549504D+00  .314218750000D+03  .302219439871D+01 -.835463371831D-08
    -.339299847486D-10  .100000000000D+01  .155700000000D+04  .000000000000D+00
     .240000000000D+01  .000000000000D+00 -.107102096081D-07  .510000000000D+02
     .936060000000D+05  .400000000000D+01
 8 09 11  9  4  0  0.0  .964198261499D-04  .894715412869D-10  .000000000000D+00
     .680000000000D+02 -.181562500000D+02  .409231331842D-08 -.460455105381D+00
    -.104308128357D-05  .110068413196D-01  .382214784622D-05  .515361005020D+04
     .100800000000D+06  .145286321640D-06 -.196336092243D+00 -.109896063805D-06
     .990969694048D+00  .320812500000D+03  .305543938469D+01 -.820034157714D-08
    -.114290474943D-10  .100000000000D+01  .155700000000D+04  .000000000000D+00
     .136500000000D+02  .630000000000D+02 -.372529029846D-08  .680000000000D+02
     .936060000000D+05  .400000000000D+01
 9 09 11  9  4  0  0.0  .874749384820D-04  .204636307899D-11  .000000000000D+00
     .102000000000D+03  .590625000000D+01  .453804617070D-08 -.674766810838D+00
     .447034835815D-06  .206097449409D-01  .451505184174D-05  .515362331963D+04
     .100800000000D+06 -.284984707832D-06 -.292895128166D+00  .894069671631D-07
     .978530217814D+00  .304812500000D+03  .151928207899D+01 -.866536094707D-08
     .115719105880D-09  .100000000000D+01  .155700000000D+04  .000000000000D+00
     .340000000000D+01  .000000000000D+00 -.558793544769D-08  .102000000000D+03
     .936060000000D+05  .400000000000D+01
10 09 11  9  4  0  0.0 -.278423540294D-04 -.909494701773D-12  .000000000000D+00
     .450000000000D+02  .226562500000D+02  .469233831187D-08  .305210566941D+01
     .113062560558D-05  .871862482745D-02  .907480716705D-05  .515339805984D+04
     .100800000000D+06 -.316649675369D-07 -.233280033228D+01 -.141561031342D-06
     .956100747582D+00  .204062500000D+03  .620693587225D+00 -.795354558281D-08
    -.331442377334D-09  .100000000000D+01  .155700000000D+04  .000000000000D+00
     .240000000000D+01  .000000000000D+00 -.279396772385D-08  .450000000000D+02
     .936060000000D+05  .400000000000D+01
